ORBCOMM-X               
1 21576U 91050C   25155.75958045  .00000380  00000+0  12574-3 0  9999
2 21576  98.3438 222.6110 0002951 204.5647 155.5404 14.43254497780324
ORBCOMM FM01            
1 23545U 95017A   25156.11604422  .00005893  00000+0  61899-3 0  9990
2 23545  69.9626 104.2320 0005019 298.0796  61.9851 14.89958319611068
ORBCOMM FM02            
1 23546U 95017B   25156.19978396  .00006643  00000+0  68238-3 0  9991
2 23546  69.9634 123.4522 0006360 305.3971  54.6589 14.90784760610674
ORBCOMM FM08            
1 25112U 97084A   25155.46646295  .00001615  00000+0  49160-3 0  9994
2 25112  45.0148  68.9267 0004956 187.9172 172.1602 14.45776702439538
ORBCOMM FM10            
1 25113U 97084B   25155.86037453  .00001776  00000+0  53869-3 0  9998
2 25113  45.0151  69.3945 0003428 144.9323 215.1755 14.45569190614730
ORBCOMM FM11            
1 25114U 97084C   25155.44805356  .00001415  00000+0  43982-3 0  9993
2 25114  45.0146  71.9830 0004150 145.4656 214.6465 14.45316529439637
ORBCOMM FM12            
1 25115U 97084D   25155.89457411  .00001599  00000+0  49146-3 0  9999
2 25115  45.0153  69.5928 0003215 142.3584 217.7493 14.45340799439499
ORBCOMM FM09            
1 25116U 97084E   25155.85670543  .00001634  00000+0  50254-3 0  9991
2 25116  45.0156  70.6948 0004677 130.6886 229.4372 14.45217206439690
