<?xml version="1.0" encoding="UTF-8"?>
<ndm xmlns:xsi="http://www.w3.org/2001/XMLSchema-instance" xsi:noNamespaceSchemaLocation="https://sanaregistry.org/r/ndmxml_unqualified/ndmxml-2.0.0-master-2.0.xsd">
<omm id="CCSDS_OMM_VERS" version="2.0">
<header><CREATION_DATE/><ORIGINATOR/></header><body><segment><metadata><OBJECT_NAME>ORBCOMM-X</OBJECT_NAME><OBJECT_ID>1991-050C</OBJECT_ID><CENTER_NAME>EARTH</CENTER_NAME><REF_FRAME>TEME</REF_FRAME><TIME_SYSTEM>UTC</TIME_SYSTEM><MEAN_ELEMENT_THEORY>SGP4</MEAN_ELEMENT_THEORY></metadata><data><meanElements><EPOCH>2025-06-04T18:13:47.750880</EPOCH><MEAN_MOTION>14.43254497</MEAN_MOTION><ECCENTRICITY>.0002951</ECCENTRICITY><INCLINATION>98.3438</INCLINATION><RA_OF_ASC_NODE>222.6110</RA_OF_ASC_NODE><ARG_OF_PERICENTER>204.5647</ARG_OF_PERICENTER><MEAN_ANOMALY>155.5404</MEAN_ANOMALY></meanElements><tleParameters><EPHEMERIS_TYPE>0</EPHEMERIS_TYPE><CLASSIFICATION_TYPE>U</CLASSIFICATION_TYPE><NORAD_CAT_ID>21576</NORAD_CAT_ID><ELEMENT_SET_NO>999</ELEMENT_SET_NO><REV_AT_EPOCH>78032</REV_AT_EPOCH><BSTAR>.12574E-3</BSTAR><MEAN_MOTION_DOT>.38E-5</MEAN_MOTION_DOT><MEAN_MOTION_DDOT>0</MEAN_MOTION_DDOT></tleParameters></data></segment></body></omm>
<omm id="CCSDS_OMM_VERS" version="2.0">
<header><CREATION_DATE/><ORIGINATOR/></header><body><segment><metadata><OBJECT_NAME>ORBCOMM FM01</OBJECT_NAME><OBJECT_ID>1995-017A</OBJECT_ID><CENTER_NAME>EARTH</CENTER_NAME><REF_FRAME>TEME</REF_FRAME><TIME_SYSTEM>UTC</TIME_SYSTEM><MEAN_ELEMENT_THEORY>SGP4</MEAN_ELEMENT_THEORY></metadata><data><meanElements><EPOCH>2025-06-05T02:47:06.220608</EPOCH><MEAN_MOTION>14.89958319</MEAN_MOTION><ECCENTRICITY>.0005019</ECCENTRICITY><INCLINATION>69.9626</INCLINATION><RA_OF_ASC_NODE>104.2320</RA_OF_ASC_NODE><ARG_OF_PERICENTER>298.0796</ARG_OF_PERICENTER><MEAN_ANOMALY>61.9851</MEAN_ANOMALY></meanElements><tleParameters><EPHEMERIS_TYPE>0</EPHEMERIS_TYPE><CLASSIFICATION_TYPE>U</CLASSIFICATION_TYPE><NORAD_CAT_ID>23545</NORAD_CAT_ID><ELEMENT_SET_NO>999</ELEMENT_SET_NO><REV_AT_EPOCH>61106</REV_AT_EPOCH><BSTAR>.61899E-3</BSTAR><MEAN_MOTION_DOT>.5893E-4</MEAN_MOTION_DOT><MEAN_MOTION_DDOT>0</MEAN_MOTION_DDOT></tleParameters></data></segment></body></omm>
<omm id="CCSDS_OMM_VERS" version="2.0">
<header><CREATION_DATE/><ORIGINATOR/></header><body><segment><metadata><OBJECT_NAME>ORBCOMM FM02</OBJECT_NAME><OBJECT_ID>1995-017B</OBJECT_ID><CENTER_NAME>EARTH</CENTER_NAME><REF_FRAME>TEME</REF_FRAME><TIME_SYSTEM>UTC</TIME_SYSTEM><MEAN_ELEMENT_THEORY>SGP4</MEAN_ELEMENT_THEORY></metadata><data><meanElements><EPOCH>2025-06-05T04:47:41.334144</EPOCH><MEAN_MOTION>14.90784760</MEAN_MOTION><ECCENTRICITY>.000636</ECCENTRICITY><INCLINATION>69.9634</INCLINATION><RA_OF_ASC_NODE>123.4522</RA_OF_ASC_NODE><ARG_OF_PERICENTER>305.3971</ARG_OF_PERICENTER><MEAN_ANOMALY>54.6589</MEAN_ANOMALY></meanElements><tleParameters><EPHEMERIS_TYPE>0</EPHEMERIS_TYPE><CLASSIFICATION_TYPE>U</CLASSIFICATION_TYPE><NORAD_CAT_ID>23546</NORAD_CAT_ID><ELEMENT_SET_NO>999</ELEMENT_SET_NO><REV_AT_EPOCH>61067</REV_AT_EPOCH><BSTAR>.68238E-3</BSTAR><MEAN_MOTION_DOT>.6643E-4</MEAN_MOTION_DOT><MEAN_MOTION_DDOT>0</MEAN_MOTION_DDOT></tleParameters></data></segment></body></omm>
<omm id="CCSDS_OMM_VERS" version="2.0">
<header><CREATION_DATE/><ORIGINATOR/></header><body><segment><metadata><OBJECT_NAME>ORBCOMM FM08</OBJECT_NAME><OBJECT_ID>1997-084A</OBJECT_ID><CENTER_NAME>EARTH</CENTER_NAME><REF_FRAME>TEME</REF_FRAME><TIME_SYSTEM>UTC</TIME_SYSTEM><MEAN_ELEMENT_THEORY>SGP4</MEAN_ELEMENT_THEORY></metadata><data><meanElements><EPOCH>2025-06-04T11:11:42.398880</EPOCH><MEAN_MOTION>14.45776702</MEAN_MOTION><ECCENTRICITY>.0004956</ECCENTRICITY><INCLINATION>45.0148</INCLINATION><RA_OF_ASC_NODE>68.9267</RA_OF_ASC_NODE><ARG_OF_PERICENTER>187.9172</ARG_OF_PERICENTER><MEAN_ANOMALY>172.1602</MEAN_ANOMALY></meanElements><tleParameters><EPHEMERIS_TYPE>0</EPHEMERIS_TYPE><CLASSIFICATION_TYPE>U</CLASSIFICATION_TYPE><NORAD_CAT_ID>25112</NORAD_CAT_ID><ELEMENT_SET_NO>999</ELEMENT_SET_NO><REV_AT_EPOCH>43953</REV_AT_EPOCH><BSTAR>.4916E-3</BSTAR><MEAN_MOTION_DOT>.1615E-4</MEAN_MOTION_DOT><MEAN_MOTION_DDOT>0</MEAN_MOTION_DDOT></tleParameters></data></segment></body></omm>
<omm id="CCSDS_OMM_VERS" version="2.0">
<header><CREATION_DATE/><ORIGINATOR/></header><body><segment><metadata><OBJECT_NAME>ORBCOMM FM10</OBJECT_NAME><OBJECT_ID>1997-084B</OBJECT_ID><CENTER_NAME>EARTH</CENTER_NAME><REF_FRAME>TEME</REF_FRAME><TIME_SYSTEM>UTC</TIME_SYSTEM><MEAN_ELEMENT_THEORY>SGP4</MEAN_ELEMENT_THEORY></metadata><data><meanElements><EPOCH>2025-06-04T20:38:56.359392</EPOCH><MEAN_MOTION>14.45569190</MEAN_MOTION><ECCENTRICITY>.0003428</ECCENTRICITY><INCLINATION>45.0151</INCLINATION><RA_OF_ASC_NODE>69.3945</RA_OF_ASC_NODE><ARG_OF_PERICENTER>144.9323</ARG_OF_PERICENTER><MEAN_ANOMALY>215.1755</MEAN_ANOMALY></meanElements><tleParameters><EPHEMERIS_TYPE>0</EPHEMERIS_TYPE><CLASSIFICATION_TYPE>U</CLASSIFICATION_TYPE><NORAD_CAT_ID>25113</NORAD_CAT_ID><ELEMENT_SET_NO>999</ELEMENT_SET_NO><REV_AT_EPOCH>61473</REV_AT_EPOCH><BSTAR>.53869E-3</BSTAR><MEAN_MOTION_DOT>.1776E-4</MEAN_MOTION_DOT><MEAN_MOTION_DDOT>0</MEAN_MOTION_DDOT></tleParameters></data></segment></body></omm>
<omm id="CCSDS_OMM_VERS" version="2.0">
<header><CREATION_DATE/><ORIGINATOR/></header><body><segment><metadata><OBJECT_NAME>ORBCOMM FM11</OBJECT_NAME><OBJECT_ID>1997-084C</OBJECT_ID><CENTER_NAME>EARTH</CENTER_NAME><REF_FRAME>TEME</REF_FRAME><TIME_SYSTEM>UTC</TIME_SYSTEM><MEAN_ELEMENT_THEORY>SGP4</MEAN_ELEMENT_THEORY></metadata><data><meanElements><EPOCH>2025-06-04T10:45:11.827584</EPOCH><MEAN_MOTION>14.45316529</MEAN_MOTION><ECCENTRICITY>.000415</ECCENTRICITY><INCLINATION>45.0146</INCLINATION><RA_OF_ASC_NODE>71.9830</RA_OF_ASC_NODE><ARG_OF_PERICENTER>145.4656</ARG_OF_PERICENTER><MEAN_ANOMALY>214.6465</MEAN_ANOMALY></meanElements><tleParameters><EPHEMERIS_TYPE>0</EPHEMERIS_TYPE><CLASSIFICATION_TYPE>U</CLASSIFICATION_TYPE><NORAD_CAT_ID>25114</NORAD_CAT_ID><ELEMENT_SET_NO>999</ELEMENT_SET_NO><REV_AT_EPOCH>43963</REV_AT_EPOCH><BSTAR>.43982E-3</BSTAR><MEAN_MOTION_DOT>.1415E-4</MEAN_MOTION_DOT><MEAN_MOTION_DDOT>0</MEAN_MOTION_DDOT></tleParameters></data></segment></body></omm>
<omm id="CCSDS_OMM_VERS" version="2.0">
<header><CREATION_DATE/><ORIGINATOR/></header><body><segment><metadata><OBJECT_NAME>ORBCOMM FM12</OBJECT_NAME><OBJECT_ID>1997-084D</OBJECT_ID><CENTER_NAME>EARTH</CENTER_NAME><REF_FRAME>TEME</REF_FRAME><TIME_SYSTEM>UTC</TIME_SYSTEM><MEAN_ELEMENT_THEORY>SGP4</MEAN_ELEMENT_THEORY></metadata><data><meanElements><EPOCH>2025-06-04T21:28:11.203104</EPOCH><MEAN_MOTION>14.45340799</MEAN_MOTION><ECCENTRICITY>.0003215</ECCENTRICITY><INCLINATION>45.0153</INCLINATION><RA_OF_ASC_NODE>69.5928</RA_OF_ASC_NODE><ARG_OF_PERICENTER>142.3584</ARG_OF_PERICENTER><MEAN_ANOMALY>217.7493</MEAN_ANOMALY></meanElements><tleParameters><EPHEMERIS_TYPE>0</EPHEMERIS_TYPE><CLASSIFICATION_TYPE>U</CLASSIFICATION_TYPE><NORAD_CAT_ID>25115</NORAD_CAT_ID><ELEMENT_SET_NO>999</ELEMENT_SET_NO><REV_AT_EPOCH>43949</REV_AT_EPOCH><BSTAR>.49146E-3</BSTAR><MEAN_MOTION_DOT>.1599E-4</MEAN_MOTION_DOT><MEAN_MOTION_DDOT>0</MEAN_MOTION_DDOT></tleParameters></data></segment></body></omm>
<omm id="CCSDS_OMM_VERS" version="2.0">
<header><CREATION_DATE/><ORIGINATOR/></header><body><segment><metadata><OBJECT_NAME>ORBCOMM FM09</OBJECT_NAME><OBJECT_ID>1997-084E</OBJECT_ID><CENTER_NAME>EARTH</CENTER_NAME><REF_FRAME>TEME</REF_FRAME><TIME_SYSTEM>UTC</TIME_SYSTEM><MEAN_ELEMENT_THEORY>SGP4</MEAN_ELEMENT_THEORY></metadata><data><meanElements><EPOCH>2025-06-04T20:33:39.349152</EPOCH><MEAN_MOTION>14.45217206</MEAN_MOTION><ECCENTRICITY>.0004677</ECCENTRICITY><INCLINATION>45.0156</INCLINATION><RA_OF_ASC_NODE>70.6948</RA_OF_ASC_NODE><ARG_OF_PERICENTER>130.6886</ARG_OF_PERICENTER><MEAN_ANOMALY>229.4372</MEAN_ANOMALY></meanElements><tleParameters><EPHEMERIS_TYPE>0</EPHEMERIS_TYPE><CLASSIFICATION_TYPE>U</CLASSIFICATION_TYPE><NORAD_CAT_ID>25116</NORAD_CAT_ID><ELEMENT_SET_NO>999</ELEMENT_SET_NO><REV_AT_EPOCH>43969</REV_AT_EPOCH><BSTAR>.50254E-3</BSTAR><MEAN_MOTION_DOT>.1634E-4</MEAN_MOTION_DOT><MEAN_MOTION_DDOT>0</MEAN_MOTION_DDOT></tleParameters></data></segment></body></omm>

</ndm>
